CCSDS_OMM_VERS = 2.0
CREATION_DATE  = 
ORIGINATOR     = 

OBJECT_NAME    = PROGRESS-MS 32
OBJECT_ID      = 2025-204A
CENTER_NAME    = EARTH
REF_FRAME      = TEME
TIME_SYSTEM    = UTC
MEAN_ELEMENT_THEORY = SGP/SGP4

EPOCH          = 2025-11-25T04:33:23.066784
MEAN_MOTION    = 15.49065492
ECCENTRICITY   = .00038559
INCLINATION    = 51.6313
RA_OF_ASC_NODE = 229.3494
ARG_OF_PERICENTER = 165.5942
MEAN_ANOMALY   = 194.5157

EPHEMERIS_TYPE = 0
CLASSIFICATION_TYPE = U
NORAD_CAT_ID   = 65586
ELEMENT_SET_NO = 999
REV_AT_EPOCH   = 27
BSTAR          = .26139988E-3
MEAN_MOTION_DOT = .14011E-3
MEAN_MOTION_DDOT = 0

CCSDS_OMM_VERS = 2.0
CREATION_DATE  = 
ORIGINATOR     = 

OBJECT_NAME    = CYGNUS NG-23
OBJECT_ID      = 2025-208A
CENTER_NAME    = EARTH
REF_FRAME      = TEME
TIME_SYSTEM    = UTC
MEAN_ELEMENT_THEORY = SGP/SGP4

EPOCH          = 2025-11-25T04:33:23.066784
MEAN_MOTION    = 15.49065492
ECCENTRICITY   = .00038559
INCLINATION    = 51.6313
RA_OF_ASC_NODE = 229.3494
ARG_OF_PERICENTER = 165.5942
MEAN_ANOMALY   = 194.5157

EPHEMERIS_TYPE = 0
CLASSIFICATION_TYPE = U
NORAD_CAT_ID   = 65616
ELEMENT_SET_NO = 999
REV_AT_EPOCH   = 22
BSTAR          = .26139988E-3
MEAN_MOTION_DOT = .14011E-3
MEAN_MOTION_DDOT = 0

CCSDS_OMM_VERS = 2.0
CREATION_DATE  = 
ORIGINATOR     = 

OBJECT_NAME    = DRAGONFLY
OBJECT_ID      = 1998-067XH
CENTER_NAME    = EARTH
REF_FRAME      = TEME
TIME_SYSTEM    = UTC
MEAN_ELEMENT_THEORY = SGP/SGP4

EPOCH          = 2025-11-26T02:42:19.812384
MEAN_MOTION    = 15.66234288
ECCENTRICITY   = .0006321
INCLINATION    = 51.6259
RA_OF_ASC_NODE = 220.5120
ARG_OF_PERICENTER = 183.3895
MEAN_ANOMALY   = 176.7059

EPHEMERIS_TYPE = 0
CLASSIFICATION_TYPE = U
NORAD_CAT_ID   = 65729
ELEMENT_SET_NO = 999
REV_AT_EPOCH   = 1055
BSTAR          = .12736E-2
MEAN_MOTION_DOT = .135859E-2
MEAN_MOTION_DDOT = 0

CCSDS_OMM_VERS = 2.0
CREATION_DATE  = 
ORIGINATOR     = 

OBJECT_NAME    = 1998-067XJ
OBJECT_ID      = 1998-067XJ
CENTER_NAME    = EARTH
REF_FRAME      = TEME
TIME_SYSTEM    = UTC
MEAN_ELEMENT_THEORY = SGP/SGP4

EPOCH          = 2025-11-26T02:18:28.515168
MEAN_MOTION    = 15.93800834
ECCENTRICITY   = .0012384
INCLINATION    = 51.6173
RA_OF_ASC_NODE = 216.5994
ARG_OF_PERICENTER = 189.8744
MEAN_ANOMALY   = 170.2022

EPHEMERIS_TYPE = 0
CLASSIFICATION_TYPE = U
NORAD_CAT_ID   = 65730
ELEMENT_SET_NO = 999
REV_AT_EPOCH   = 1060
BSTAR          = .26464E-2
MEAN_MOTION_DOT = .989567E-2
MEAN_MOTION_DDOT = .4437E-3

CCSDS_OMM_VERS = 2.0
CREATION_DATE  = 
ORIGINATOR     = 

OBJECT_NAME    = 1998-067XK
OBJECT_ID      = 1998-067XK
CENTER_NAME    = EARTH
REF_FRAME      = TEME
TIME_SYSTEM    = UTC
MEAN_ELEMENT_THEORY = SGP/SGP4

EPOCH          = 2025-11-26T02:52:03.166176
MEAN_MOTION    = 15.62206517
ECCENTRICITY   = .0006097
INCLINATION    = 51.6289
RA_OF_ASC_NODE = 221.3146
ARG_OF_PERICENTER = 158.2486
MEAN_ANOMALY   = 201.8768

EPHEMERIS_TYPE = 0
CLASSIFICATION_TYPE = U
NORAD_CAT_ID   = 65731
ELEMENT_SET_NO = 999
REV_AT_EPOCH   = 1054
BSTAR          = .96832E-3
MEAN_MOTION_DOT = .87381E-3
MEAN_MOTION_DDOT = 0

CCSDS_OMM_VERS = 2.0
CREATION_DATE  = 
ORIGINATOR     = 

OBJECT_NAME    = RSP-03
OBJECT_ID      = 1998-067XL
CENTER_NAME    = EARTH
REF_FRAME      = TEME
TIME_SYSTEM    = UTC
MEAN_ELEMENT_THEORY = SGP/SGP4

EPOCH          = 2025-11-26T02:02:54.979584
MEAN_MOTION    = 15.64113134
ECCENTRICITY   = .0006884
INCLINATION    = 51.6282
RA_OF_ASC_NODE = 221.0815
ARG_OF_PERICENTER = 159.4206
MEAN_ANOMALY   = 200.7067

EPHEMERIS_TYPE = 0
CLASSIFICATION_TYPE = U
NORAD_CAT_ID   = 65732
ELEMENT_SET_NO = 999
REV_AT_EPOCH   = 1055
BSTAR          = .11003E-2
MEAN_MOTION_DOT = .107391E-2
MEAN_MOTION_DDOT = 0

CCSDS_OMM_VERS = 2.0
CREATION_DATE  = 
ORIGINATOR     = 

OBJECT_NAME    = GHS-01
OBJECT_ID      = 1998-067XM
CENTER_NAME    = EARTH
REF_FRAME      = TEME
TIME_SYSTEM    = UTC
MEAN_ELEMENT_THEORY = SGP/SGP4

EPOCH          = 2025-11-26T02:05:35.663712
MEAN_MOTION    = 15.67847198
ECCENTRICITY   = .0006797
INCLINATION    = 51.6284
RA_OF_ASC_NODE = 220.3459
ARG_OF_PERICENTER = 180.8941
MEAN_ANOMALY   = 179.2044

EPHEMERIS_TYPE = 0
CLASSIFICATION_TYPE = U
NORAD_CAT_ID   = 65733
ELEMENT_SET_NO = 999
REV_AT_EPOCH   = 1056
BSTAR          = .13882E-2
MEAN_MOTION_DOT = .158619E-2
MEAN_MOTION_DDOT = 0

CCSDS_OMM_VERS = 2.0
CREATION_DATE  = 
ORIGINATOR     = 

OBJECT_NAME    = YOTSUBA-KULOVER
OBJECT_ID      = 1998-067XN
CENTER_NAME    = EARTH
REF_FRAME      = TEME
TIME_SYSTEM    = UTC
MEAN_ELEMENT_THEORY = SGP/SGP4

EPOCH          = 2025-11-25T03:18:06.752160
MEAN_MOTION    = 15.56702083
ECCENTRICITY   = .00024187
INCLINATION    = 51.6302
RA_OF_ASC_NODE = 228.2532
ARG_OF_PERICENTER = 127.4758
MEAN_ANOMALY   = 232.6454

EPHEMERIS_TYPE = 0
CLASSIFICATION_TYPE = U
NORAD_CAT_ID   = 65941
ELEMENT_SET_NO = 999
REV_AT_EPOCH   = 711
BSTAR          = .99427292E-3
MEAN_MOTION_DOT = .72537E-3
MEAN_MOTION_DDOT = 0

CCSDS_OMM_VERS = 2.0
CREATION_DATE  = 
ORIGINATOR     = 

OBJECT_NAME    = BOTAN
OBJECT_ID      = 1998-067XP
CENTER_NAME    = EARTH
REF_FRAME      = TEME
TIME_SYSTEM    = UTC
MEAN_ELEMENT_THEORY = SGP/SGP4

EPOCH          = 2025-11-25T02:37:47.727552
MEAN_MOTION    = 15.58820715
ECCENTRICITY   = .00047223
INCLINATION    = 51.6298
RA_OF_ASC_NODE = 228.0671
ARG_OF_PERICENTER = 130.8647
MEAN_ANOMALY   = 229.2756

EPHEMERIS_TYPE = 0
CLASSIFICATION_TYPE = U
NORAD_CAT_ID   = 65942
ELEMENT_SET_NO = 999
REV_AT_EPOCH   = 711
BSTAR          = .12591899E-2
MEAN_MOTION_DOT = .10001E-2
MEAN_MOTION_DDOT = 0

CCSDS_OMM_VERS = 2.0
CREATION_DATE  = 
ORIGINATOR     = 

OBJECT_NAME    = E-KAGAKU-1
OBJECT_ID      = 1998-067XQ
CENTER_NAME    = EARTH
REF_FRAME      = TEME
TIME_SYSTEM    = UTC
MEAN_ELEMENT_THEORY = SGP/SGP4

EPOCH          = 2025-11-25T03:17:41.331552
MEAN_MOTION    = 15.56681668
ECCENTRICITY   = .00039621
INCLINATION    = 51.6305
RA_OF_ASC_NODE = 228.2538
ARG_OF_PERICENTER = 114.1858
MEAN_ANOMALY   = 245.9549

EPHEMERIS_TYPE = 0
CLASSIFICATION_TYPE = U
NORAD_CAT_ID   = 65943
ELEMENT_SET_NO = 999
REV_AT_EPOCH   = 711
BSTAR          = .99785891E-3
MEAN_MOTION_DOT = .72759E-3
MEAN_MOTION_DDOT = 0

CCSDS_OMM_VERS = 2.0
CREATION_DATE  = 
ORIGINATOR     = 

OBJECT_NAME    = HRC MONOBLOCK CAMERA
OBJECT_ID      = 1998-067XR
CENTER_NAME    = EARTH
REF_FRAME      = TEME
TIME_SYSTEM    = UTC
MEAN_ELEMENT_THEORY = SGP/SGP4

EPOCH          = 2025-11-26T02:48:50.570208
MEAN_MOTION    = 15.52674459
ECCENTRICITY   = .0004649
INCLINATION    = 51.6297
RA_OF_ASC_NODE = 224.2929
ARG_OF_PERICENTER = 118.5222
MEAN_ANOMALY   = 241.6236

EPHEMERIS_TYPE = 0
CLASSIFICATION_TYPE = U
NORAD_CAT_ID   = 66052
ELEMENT_SET_NO = 999
REV_AT_EPOCH   = 625
BSTAR          = .64861E-3
MEAN_MOTION_DOT = .40478E-3
MEAN_MOTION_DDOT = 0

CCSDS_OMM_VERS = 2.0
CREATION_DATE  = 
ORIGINATOR     = 

OBJECT_NAME    = HTV-X1
OBJECT_ID      = 2025-241A
CENTER_NAME    = EARTH
REF_FRAME      = TEME
TIME_SYSTEM    = UTC
MEAN_ELEMENT_THEORY = SGP/SGP4

EPOCH          = 2025-11-25T04:33:23.066784
MEAN_MOTION    = 15.49065492
ECCENTRICITY   = .00038559
INCLINATION    = 51.6313
RA_OF_ASC_NODE = 229.3494
ARG_OF_PERICENTER = 165.5942
MEAN_ANOMALY   = 194.5157

EPHEMERIS_TYPE = 0
CLASSIFICATION_TYPE = U
NORAD_CAT_ID   = 66174
ELEMENT_SET_NO = 999
REV_AT_EPOCH   = 145
BSTAR          = .26139988E-3
MEAN_MOTION_DOT = .14011E-3
MEAN_MOTION_DDOT = 0

